parent_name,parent_entity_id,parent_entity_type,parent_lei,parent_permid,parent_registration_country,parent_headquarter_country,overall_share_percent,ownership_path,ownership_path_datasource_ids,immediate_source_owner,immediate_source_owner_entity_id,source_operator,source_operator_id,source_id,source_name,source_sector,source_subsector
IGH Holdings Pvt Ltd,E100001010419,legal entity,335800E52FQAZNBKW310,5000932187,IND,IND,,IGH Holdings Pvt Ltd -> Hindalco Industries Ltd [15.58%] -> Amtipani Mine [unknown %],,Hindalco Industries Ltd,E100000120560,,,42233098,Amtipani Mine,mineral-extraction,bauxite-mining
Hindalco Industries Ltd,E100000120560,legal entity,335800KXLE5NO5B4GF90,4295873625,IND,IND,,Hindalco Industries Ltd -> Amtipani Mine [unknown %],,Hindalco Industries Ltd,E100000120560,,,42233098,Amtipani Mine,mineral-extraction,bauxite-mining
Life Insurance Corporation of India Ltd,E100001000520,legal entity,21380068NOA8WMH89Z35,4298477512,IND,IND,,Life Insurance Corporation of India Ltd -> Hindalco Industries Ltd [9.65%] -> Amtipani Mine [unknown %],,Hindalco Industries Ltd,E100000120560,,,42233098,Amtipani Mine,mineral-extraction,bauxite-mining
Birla Group Holdings Pvt Ltd,E100001010420,legal entity,335800ILCQTLE8K8I628,5000003697,IND,IND,,Birla Group Holdings Pvt Ltd -> Hindalco Industries Ltd [10.16%] -> Amtipani Mine [unknown %],,Hindalco Industries Ltd,E100000120560,,,42233098,Amtipani Mine,mineral-extraction,bauxite-mining
natural person(s),E100000123261,person,not applicable,not applicable,,,,natural person(s)  -> Hindalco Industries Ltd [5.16%] -> Amtipani Mine [unknown %],,Hindalco Industries Ltd,E100000120560,,,42233098,Amtipani Mine,mineral-extraction,bauxite-mining
Essel Mining & Industries Ltd,E100000153045,legal entity,3358006SBGEK8EC3HC67,4296015221,IND,IND,,Essel Mining & Industries Ltd -> IGH Holdings Pvt Ltd [100.0%] -> Hindalco Industries Ltd [15.58%] -> Amtipani Mine [unknown %],,Hindalco Industries Ltd,E100000120560,,,42233098,Amtipani Mine,mineral-extraction,bauxite-mining
small shareholder(s),E100001015587,unknown entity,not applicable,not applicable,,,,small shareholder(s)  -> Hindalco Industries Ltd [59.45%] -> Amtipani Mine [unknown %],,Hindalco Industries Ltd,E100000120560,,,42233098,Amtipani Mine,mineral-extraction,bauxite-mining
Aditya Birla Management Corporation Pvt Ltd,E100000120031,legal entity,335800GITXOP4O6TQM65,5000053377,IND,IND,,Aditya Birla Management Corporation Pvt Ltd -> Essel Mining & Industries Ltd [unknown %] -> IGH Holdings Pvt Ltd [100.0%] -> Hindalco Industries Ltd [15.58%] -> Amtipani Mine [unknown %],,Hindalco Industries Ltd,E100000120560,,,42233098,Amtipani Mine,mineral-extraction,bauxite-mining
Government of India,E100001000397,state,,5000055448,,IND,,Government of India  -> Life Insurance Corporation of India Ltd [96.5%] -> Hindalco Industries Ltd [9.65%] -> Amtipani Mine [unknown %],,Hindalco Industries Ltd,E100000120560,,,42233098,Amtipani Mine,mineral-extraction,bauxite-mining
natural person(s),E100000123261,person,not applicable,not applicable,,,,natural person(s)  -> Argat Mine [unknown %],,natural person(s),E100000123261,,,42233099,Argat Mine,mineral-extraction,bauxite-mining
Vedanta Resources PLC,E100002011099,,,,,,,Vedanta Resources PLC -> Ariyurnadu Mine [unknown %],,Vedanta Resources PLC,E100002011099,,,42233100,Ariyurnadu Mine,mineral-extraction,bauxite-mining
Bombay Minerals Ltd,E100002011100,,,,,,,Bombay Minerals Ltd -> Asota-Mewasa Mine [unknown %],,Bombay Minerals Ltd,E100002011100,,,42233101,Asota-Mewasa Mine,mineral-extraction,bauxite-mining
Orient Ceratech Ltd,E100002011101,,,,,,,Orient Ceratech Ltd -> Avariyar-II Mine [unknown %],,Orient Ceratech Ltd,E100002011101,,,42233102,Avariyar-II Mine,mineral-extraction,bauxite-mining
Alatge Stone Crushing Industries,E100002011102,,,,,,,Alatge Stone Crushing Industries  -> Bagmandala Mine [unknown %],,Alatge Stone Crushing Industries,E100002011102,,,42233104,Bagmandala Mine,mineral-extraction,bauxite-mining
Government of India,E100001000397,state,,5000055448,,IND,,Government of India  -> Life Insurance Corporation of India Ltd [96.5%] -> Hindalco Industries Ltd [9.65%] -> Bagru-Bhusar Mine [unknown %],,Hindalco Industries Ltd,E100000120560,,,42233105,Bagru-Bhusar Mine,mineral-extraction,bauxite-mining
IGH Holdings Pvt Ltd,E100001010419,legal entity,335800E52FQAZNBKW310,5000932187,IND,IND,,IGH Holdings Pvt Ltd -> Hindalco Industries Ltd [15.58%] -> Bagru-Bhusar Mine [unknown %],,Hindalco Industries Ltd,E100000120560,,,42233105,Bagru-Bhusar Mine,mineral-extraction,bauxite-mining
Hindalco Industries Ltd,E100000120560,legal entity,335800KXLE5NO5B4GF90,4295873625,IND,IND,,Hindalco Industries Ltd -> Bagru-Bhusar Mine [unknown %],,Hindalco Industries Ltd,E100000120560,,,42233105,Bagru-Bhusar Mine,mineral-extraction,bauxite-mining
Life Insurance Corporation of India Ltd,E100001000520,legal entity,21380068NOA8WMH89Z35,4298477512,IND,IND,,Life Insurance Corporation of India Ltd -> Hindalco Industries Ltd [9.65%] -> Bagru-Bhusar Mine [unknown %],,Hindalco Industries Ltd,E100000120560,,,42233105,Bagru-Bhusar Mine,mineral-extraction,bauxite-mining
Birla Group Holdings Pvt Ltd,E100001010420,legal entity,335800ILCQTLE8K8I628,5000003697,IND,IND,,Birla Group Holdings Pvt Ltd -> Hindalco Industries Ltd [10.16%] -> Bagru-Bhusar Mine [unknown %],,Hindalco Industries Ltd,E100000120560,,,42233105,Bagru-Bhusar Mine,mineral-extraction,bauxite-mining
natural person(s),E100000123261,person,not applicable,not applicable,,,,natural person(s)  -> Hindalco Industries Ltd [5.16%] -> Bagru-Bhusar Mine [unknown %],,Hindalco Industries Ltd,E100000120560,,,42233105,Bagru-Bhusar Mine,mineral-extraction,bauxite-mining
Essel Mining & Industries Ltd,E100000153045,legal entity,3358006SBGEK8EC3HC67,4296015221,IND,IND,,Essel Mining & Industries Ltd -> IGH Holdings Pvt Ltd [100.0%] -> Hindalco Industries Ltd [15.58%] -> Bagru-Bhusar Mine [unknown %],,Hindalco Industries Ltd,E100000120560,,,42233105,Bagru-Bhusar Mine,mineral-extraction,bauxite-mining
small shareholder(s),E100001015587,unknown entity,not applicable,not applicable,,,,small shareholder(s)  -> Hindalco Industries Ltd [59.45%] -> Bagru-Bhusar Mine [unknown %],,Hindalco Industries Ltd,E100000120560,,,42233105,Bagru-Bhusar Mine,mineral-extraction,bauxite-mining
Aditya Birla Management Corporation Pvt Ltd,E100000120031,legal entity,335800GITXOP4O6TQM65,5000053377,IND,IND,,Aditya Birla Management Corporation Pvt Ltd -> Essel Mining & Industries Ltd [unknown %] -> IGH Holdings Pvt Ltd [100.0%] -> Hindalco Industries Ltd [15.58%] -> Bagru-Bhusar Mine [unknown %],,Hindalco Industries Ltd,E100000120560,,,42233105,Bagru-Bhusar Mine,mineral-extraction,bauxite-mining
natural person(s),E100000123261,person,not applicable,not applicable,,,,natural person(s)  -> Bahagara Mine [unknown %],,natural person(s),E100000123261,,,42233106,Bahagara Mine,mineral-extraction,bauxite-mining
,,,,,,,,,,,,Utkal Alumina International Ltd,E100002012124,42233107,Baphlimali Mine,mineral-extraction,bauxite-mining
Government of India,E100001000397,state,,5000055448,,IND,,Government of India  -> Life Insurance Corporation of India Ltd [96.5%] -> Hindalco Industries Ltd [9.65%] -> Baphlimali Mine [unknown %],,Hindalco Industries Ltd,E100000120560,,,42233107,Baphlimali Mine,mineral-extraction,bauxite-mining
IGH Holdings Pvt Ltd,E100001010419,legal entity,335800E52FQAZNBKW310,5000932187,IND,IND,,IGH Holdings Pvt Ltd -> Hindalco Industries Ltd [15.58%] -> Baphlimali Mine [unknown %],,Hindalco Industries Ltd,E100000120560,,,42233107,Baphlimali Mine,mineral-extraction,bauxite-mining
Hindalco Industries Ltd,E100000120560,legal entity,335800KXLE5NO5B4GF90,4295873625,IND,IND,,Hindalco Industries Ltd -> Baphlimali Mine [unknown %],,Hindalco Industries Ltd,E100000120560,,,42233107,Baphlimali Mine,mineral-extraction,bauxite-mining
Life Insurance Corporation of India Ltd,E100001000520,legal entity,21380068NOA8WMH89Z35,4298477512,IND,IND,,Life Insurance Corporation of India Ltd -> Hindalco Industries Ltd [9.65%] -> Baphlimali Mine [unknown %],,Hindalco Industries Ltd,E100000120560,,,42233107,Baphlimali Mine,mineral-extraction,bauxite-mining
Birla Group Holdings Pvt Ltd,E100001010420,legal entity,335800ILCQTLE8K8I628,5000003697,IND,IND,,Birla Group Holdings Pvt Ltd -> Hindalco Industries Ltd [10.16%] -> Baphlimali Mine [unknown %],,Hindalco Industries Ltd,E100000120560,,,42233107,Baphlimali Mine,mineral-extraction,bauxite-mining
natural person(s),E100000123261,person,not applicable,not applicable,,,,natural person(s)  -> Hindalco Industries Ltd [5.16%] -> Baphlimali Mine [unknown %],,Hindalco Industries Ltd,E100000120560,,,42233107,Baphlimali Mine,mineral-extraction,bauxite-mining
Essel Mining & Industries Ltd,E100000153045,legal entity,3358006SBGEK8EC3HC67,4296015221,IND,IND,,Essel Mining & Industries Ltd -> IGH Holdings Pvt Ltd [100.0%] -> Hindalco Industries Ltd [15.58%] -> Baphlimali Mine [unknown %],,Hindalco Industries Ltd,E100000120560,,,42233107,Baphlimali Mine,mineral-extraction,bauxite-mining
small shareholder(s),E100001015587,unknown entity,not applicable,not applicable,,,,small shareholder(s)  -> Hindalco Industries Ltd [59.45%] -> Baphlimali Mine [unknown %],,Hindalco Industries Ltd,E100000120560,,,42233107,Baphlimali Mine,mineral-extraction,bauxite-mining
Aditya Birla Management Corporation Pvt Ltd,E100000120031,legal entity,335800GITXOP4O6TQM65,5000053377,IND,IND,,Aditya Birla Management Corporation Pvt Ltd -> Essel Mining & Industries Ltd [unknown %] -> IGH Holdings Pvt Ltd [100.0%] -> Hindalco Industries Ltd [15.58%] -> Baphlimali Mine [unknown %],,Hindalco Industries Ltd,E100000120560,,,42233107,Baphlimali Mine,mineral-extraction,bauxite-mining
Kunjilal Ishwari Prasad Agrawal,E100002011104,,,,,,,Kunjilal Ishwari Prasad Agrawal  -> Barui Mine [unknown %],,Kunjilal Ishwari Prasad Agrawal,E100002011104,,,42233108,Barui Mine,mineral-extraction,bauxite-mining
Government of India,E100001000397,state,,5000055448,,IND,,Government of India  -> Life Insurance Corporation of India Ltd [96.5%] -> Hindalco Industries Ltd [9.65%] -> Bhogoli-Pilani Mine [unknown %],,Hindalco Industries Ltd,E100000120560,,,42233109,Bhogoli-Pilani Mine,mineral-extraction,bauxite-mining
IGH Holdings Pvt Ltd,E100001010419,legal entity,335800E52FQAZNBKW310,5000932187,IND,IND,,IGH Holdings Pvt Ltd -> Hindalco Industries Ltd [15.58%] -> Bhogoli-Pilani Mine [unknown %],,Hindalco Industries Ltd,E100000120560,,,42233109,Bhogoli-Pilani Mine,mineral-extraction,bauxite-mining
Hindalco Industries Ltd,E100000120560,legal entity,335800KXLE5NO5B4GF90,4295873625,IND,IND,,Hindalco Industries Ltd -> Bhogoli-Pilani Mine [unknown %],,Hindalco Industries Ltd,E100000120560,,,42233109,Bhogoli-Pilani Mine,mineral-extraction,bauxite-mining
Life Insurance Corporation of India Ltd,E100001000520,legal entity,21380068NOA8WMH89Z35,4298477512,IND,IND,,Life Insurance Corporation of India Ltd -> Hindalco Industries Ltd [9.65%] -> Bhogoli-Pilani Mine [unknown %],,Hindalco Industries Ltd,E100000120560,,,42233109,Bhogoli-Pilani Mine,mineral-extraction,bauxite-mining
Birla Group Holdings Pvt Ltd,E100001010420,legal entity,335800ILCQTLE8K8I628,5000003697,IND,IND,,Birla Group Holdings Pvt Ltd -> Hindalco Industries Ltd [10.16%] -> Bhogoli-Pilani Mine [unknown %],,Hindalco Industries Ltd,E100000120560,,,42233109,Bhogoli-Pilani Mine,mineral-extraction,bauxite-mining
natural person(s),E100000123261,person,not applicable,not applicable,,,,natural person(s)  -> Hindalco Industries Ltd [5.16%] -> Bhogoli-Pilani Mine [unknown %],,Hindalco Industries Ltd,E100000120560,,,42233109,Bhogoli-Pilani Mine,mineral-extraction,bauxite-mining
Essel Mining & Industries Ltd,E100000153045,legal entity,3358006SBGEK8EC3HC67,4296015221,IND,IND,,Essel Mining & Industries Ltd -> IGH Holdings Pvt Ltd [100.0%] -> Hindalco Industries Ltd [15.58%] -> Bhogoli-Pilani Mine [unknown %],,Hindalco Industries Ltd,E100000120560,,,42233109,Bhogoli-Pilani Mine,mineral-extraction,bauxite-mining
small shareholder(s),E100001015587,unknown entity,not applicable,not applicable,,,,small shareholder(s)  -> Hindalco Industries Ltd [59.45%] -> Bhogoli-Pilani Mine [unknown %],,Hindalco Industries Ltd,E100000120560,,,42233109,Bhogoli-Pilani Mine,mineral-extraction,bauxite-mining
Aditya Birla Management Corporation Pvt Ltd,E100000120031,legal entity,335800GITXOP4O6TQM65,5000053377,IND,IND,,Aditya Birla Management Corporation Pvt Ltd -> Essel Mining & Industries Ltd [unknown %] -> IGH Holdings Pvt Ltd [100.0%] -> Hindalco Industries Ltd [15.58%] -> Bhogoli-Pilani Mine [unknown %],,Hindalco Industries Ltd,E100000120560,,,42233109,Bhogoli-Pilani Mine,mineral-extraction,bauxite-mining
Bauxite Mining Industries (India) Pvt Ltd,E100002011105,legal entity,,,,,,Bauxite Mining Industries (India) Pvt Ltd -> Bhopalka Mine [unknown %],,Bauxite Mining Industries (India) Pvt Ltd,E100002011105,,,42233110,Bhopalka Mine,mineral-extraction,bauxite-mining
,,,,,,,,,,,,Hindalco Industries Ltd,E100000120560,42233111,Bimarla Mine,mineral-extraction,bauxite-mining
Minerals and Minerals Ltd,E100002011927,legal entity,,,,,,Minerals and Minerals Ltd -> Bimarla Mine [unknown %],,Minerals and Minerals Ltd,E100002011927,,,42233111,Bimarla Mine,mineral-extraction,bauxite-mining
,,,,,,,,,,,,Bharat Aluminum Co Ltd,E100001010032,42233113,Bodai-Daldali Mine,mineral-extraction,bauxite-mining
Vedanta Resources PLC,E100002011099,,,,,,,Vedanta Resources PLC -> Bodai-Daldali Mine [unknown %],,Vedanta Resources PLC,E100002011099,,,42233113,Bodai-Daldali Mine,mineral-extraction,bauxite-mining
,,,,,,,,,,,,Katni Bauxite Pvt Ltd,E100002012125,42233114,Chachandih Mine,mineral-extraction,bauxite-mining
MP State Mining Corp Ltd,E100002011928,legal entity,,,,,,MP State Mining Corp Ltd -> Chachandih Mine [unknown %],,MP State Mining Corp Ltd,E100002011928,,,42233114,Chachandih Mine,mineral-extraction,bauxite-mining
Katni Minerals Pvt Ltd,E100002011929,legal entity,,,,,,Katni Minerals Pvt Ltd -> Chhapra Mine [unknown %],,Katni Minerals Pvt Ltd,E100002011929,,,42233115,Chhapra Mine,mineral-extraction,bauxite-mining
natural person(s),E100000123261,person,not applicable,not applicable,,,,natural person(s)  -> Chhelana Mine [unknown %],,natural person(s),E100000123261,,,42233116,Chhelana Mine,mineral-extraction,bauxite-mining
Government of India,E100001000397,state,,5000055448,,IND,,Government of India  -> Life Insurance Corporation of India Ltd [96.5%] -> Hindalco Industries Ltd [9.65%] -> Chiro-Kukud Mine [unknown %],,Hindalco Industries Ltd,E100000120560,,,42233117,Chiro-Kukud Mine,mineral-extraction,bauxite-mining
IGH Holdings Pvt Ltd,E100001010419,legal entity,335800E52FQAZNBKW310,5000932187,IND,IND,,IGH Holdings Pvt Ltd -> Hindalco Industries Ltd [15.58%] -> Chiro-Kukud Mine [unknown %],,Hindalco Industries Ltd,E100000120560,,,42233117,Chiro-Kukud Mine,mineral-extraction,bauxite-mining
Hindalco Industries Ltd,E100000120560,legal entity,335800KXLE5NO5B4GF90,4295873625,IND,IND,,Hindalco Industries Ltd -> Chiro-Kukud Mine [unknown %],,Hindalco Industries Ltd,E100000120560,,,42233117,Chiro-Kukud Mine,mineral-extraction,bauxite-mining
Life Insurance Corporation of India Ltd,E100001000520,legal entity,21380068NOA8WMH89Z35,4298477512,IND,IND,,Life Insurance Corporation of India Ltd -> Hindalco Industries Ltd [9.65%] -> Chiro-Kukud Mine [unknown %],,Hindalco Industries Ltd,E100000120560,,,42233117,Chiro-Kukud Mine,mineral-extraction,bauxite-mining
Birla Group Holdings Pvt Ltd,E100001010420,legal entity,335800ILCQTLE8K8I628,5000003697,IND,IND,,Birla Group Holdings Pvt Ltd -> Hindalco Industries Ltd [10.16%] -> Chiro-Kukud Mine [unknown %],,Hindalco Industries Ltd,E100000120560,,,42233117,Chiro-Kukud Mine,mineral-extraction,bauxite-mining
natural person(s),E100000123261,person,not applicable,not applicable,,,,natural person(s)  -> Hindalco Industries Ltd [5.16%] -> Chiro-Kukud Mine [unknown %],,Hindalco Industries Ltd,E100000120560,,,42233117,Chiro-Kukud Mine,mineral-extraction,bauxite-mining
Essel Mining & Industries Ltd,E100000153045,legal entity,3358006SBGEK8EC3HC67,4296015221,IND,IND,,Essel Mining & Industries Ltd -> IGH Holdings Pvt Ltd [100.0%] -> Hindalco Industries Ltd [15.58%] -> Chiro-Kukud Mine [unknown %],,Hindalco Industries Ltd,E100000120560,,,42233117,Chiro-Kukud Mine,mineral-extraction,bauxite-mining
small shareholder(s),E100001015587,unknown entity,not applicable,not applicable,,,,small shareholder(s)  -> Hindalco Industries Ltd [59.45%] -> Chiro-Kukud Mine [unknown %],,Hindalco Industries Ltd,E100000120560,,,42233117,Chiro-Kukud Mine,mineral-extraction,bauxite-mining
Aditya Birla Management Corporation Pvt Ltd,E100000120031,legal entity,335800GITXOP4O6TQM65,5000053377,IND,IND,,Aditya Birla Management Corporation Pvt Ltd -> Essel Mining & Industries Ltd [unknown %] -> IGH Holdings Pvt Ltd [100.0%] -> Hindalco Industries Ltd [15.58%] -> Chiro-Kukud Mine [unknown %],,Hindalco Industries Ltd,E100000120560,,,42233117,Chiro-Kukud Mine,mineral-extraction,bauxite-mining
Minerals and Minerals Ltd,E100002011927,legal entity,,,,,,Minerals and Minerals Ltd -> Chirodih Mine [unknown %],,Minerals and Minerals Ltd,E100002011927,,,42233118,Chirodih Mine,mineral-extraction,bauxite-mining
natural person(s),E100000123261,person,not applicable,not applicable,,,,natural person(s)  -> Chitti Mine [unknown %],,natural person(s),E100000123261,,,42233119,Chitti Mine,mineral-extraction,bauxite-mining
small shareholder(s),E100001015587,unknown entity,not applicable,not applicable,,,,small shareholder(s)  -> Gujarat Mineral Development Co Ltd [7.78%] -> Daban-Wamoti Mine [unknown %],,Gujarat Mineral Development Co Ltd,E100001000669,,,42233120,Daban-Wamoti Mine,mineral-extraction,bauxite-mining
State of Gujarat,E100000131638,state,,5000004492,,IND,,State of Gujarat  -> Gujarat Mineral Development Co Ltd [74.0%] -> Daban-Wamoti Mine [unknown %],,Gujarat Mineral Development Co Ltd,E100001000669,,,42233120,Daban-Wamoti Mine,mineral-extraction,bauxite-mining
Gujarat Mineral Development Co Ltd,E100001000669,legal entity,335800B8OP5L7DH9VD35,4295872462,IND,IND,,Gujarat Mineral Development Co Ltd -> Daban-Wamoti Mine [unknown %],,Gujarat Mineral Development Co Ltd,E100001000669,,,42233120,Daban-Wamoti Mine,mineral-extraction,bauxite-mining
natural person(s),E100000123261,person,not applicable,not applicable,,,,natural person(s)  -> Gujarat Mineral Development Co Ltd [18.22%] -> Daban-Wamoti Mine [unknown %],,Gujarat Mineral Development Co Ltd,E100001000669,,,42233120,Daban-Wamoti Mine,mineral-extraction,bauxite-mining
natural person(s),E100000123261,person,not applicable,not applicable,,,,natural person(s)  -> Dakor Mine [unknown %],,natural person(s),E100000123261,,,42233121,Dakor Mine,mineral-extraction,bauxite-mining
Bharatesh Construction Co,E100002011110,,,,,,,Bharatesh Construction Co -> Dandguri Mine [unknown %],,Bharatesh Construction Co,E100002011110,,,42233122,Dandguri Mine,mineral-extraction,bauxite-mining
natural person(s),E100000123261,person,not applicable,not applicable,,,,natural person(s)  -> Dedhrota Mine [unknown %],,natural person(s),E100000123261,,,42233123,Dedhrota Mine,mineral-extraction,bauxite-mining
natural person(s),E100000123261,person,not applicable,not applicable,,,,natural person(s)  -> Devnagar Mine [unknown %],,natural person(s),E100000123261,,,42233124,Devnagar Mine,mineral-extraction,bauxite-mining
Aditya Birla Management Corporation Pvt Ltd,E100000120031,legal entity,335800GITXOP4O6TQM65,5000053377,IND,IND,,Aditya Birla Management Corporation Pvt Ltd -> Essel Mining & Industries Ltd [unknown %] -> IGH Holdings Pvt Ltd [100.0%] -> Hindalco Industries Ltd [15.58%] -> Dhanagarwadi Mine [unknown %],,Hindalco Industries Ltd,E100000120560,,,42233125,Dhanagarwadi Mine,mineral-extraction,bauxite-mining
Government of India,E100001000397,state,,5000055448,,IND,,Government of India  -> Life Insurance Corporation of India Ltd [96.5%] -> Hindalco Industries Ltd [9.65%] -> Dhanagarwadi Mine [unknown %],,Hindalco Industries Ltd,E100000120560,,,42233125,Dhanagarwadi Mine,mineral-extraction,bauxite-mining
Hindalco Industries Ltd,E100000120560,legal entity,335800KXLE5NO5B4GF90,4295873625,IND,IND,,Hindalco Industries Ltd -> Dhanagarwadi Mine [unknown %],,Hindalco Industries Ltd,E100000120560,,,42233125,Dhanagarwadi Mine,mineral-extraction,bauxite-mining
Life Insurance Corporation of India Ltd,E100001000520,legal entity,21380068NOA8WMH89Z35,4298477512,IND,IND,,Life Insurance Corporation of India Ltd -> Hindalco Industries Ltd [9.65%] -> Dhanagarwadi Mine [unknown %],,Hindalco Industries Ltd,E100000120560,,,42233125,Dhanagarwadi Mine,mineral-extraction,bauxite-mining
small shareholder(s),E100001015587,unknown entity,not applicable,not applicable,,,,small shareholder(s)  -> Hindalco Industries Ltd [59.45%] -> Dhanagarwadi Mine [unknown %],,Hindalco Industries Ltd,E100000120560,,,42233125,Dhanagarwadi Mine,mineral-extraction,bauxite-mining
IGH Holdings Pvt Ltd,E100001010419,legal entity,335800E52FQAZNBKW310,5000932187,IND,IND,,IGH Holdings Pvt Ltd -> Hindalco Industries Ltd [15.58%] -> Dhanagarwadi Mine [unknown %],,Hindalco Industries Ltd,E100000120560,,,42233125,Dhanagarwadi Mine,mineral-extraction,bauxite-mining
Birla Group Holdings Pvt Ltd,E100001010420,legal entity,335800ILCQTLE8K8I628,5000003697,IND,IND,,Birla Group Holdings Pvt Ltd -> Hindalco Industries Ltd [10.16%] -> Dhanagarwadi Mine [unknown %],,Hindalco Industries Ltd,E100000120560,,,42233125,Dhanagarwadi Mine,mineral-extraction,bauxite-mining
natural person(s),E100000123261,person,not applicable,not applicable,,,,natural person(s)  -> Hindalco Industries Ltd [5.16%] -> Dhanagarwadi Mine [unknown %],,Hindalco Industries Ltd,E100000120560,,,42233125,Dhanagarwadi Mine,mineral-extraction,bauxite-mining
Essel Mining & Industries Ltd,E100000153045,legal entity,3358006SBGEK8EC3HC67,4296015221,IND,IND,,Essel Mining & Industries Ltd -> IGH Holdings Pvt Ltd [100.0%] -> Hindalco Industries Ltd [15.58%] -> Dhanagarwadi Mine [unknown %],,Hindalco Industries Ltd,E100000120560,,,42233125,Dhanagarwadi Mine,mineral-extraction,bauxite-mining
natural person(s),E100000123261,person,not applicable,not applicable,,,,natural person(s)  -> Dharmendra Mine [unknown %],,natural person(s),E100000123261,,,42233126,Dharmendra Mine,mineral-extraction,bauxite-mining
Government of India,E100001000397,state,,5000055448,,IND,,Government of India  -> Life Insurance Corporation of India Ltd [96.5%] -> Hindalco Industries Ltd [9.65%] -> Durgmanwadi Mine [unknown %],,Hindalco Industries Ltd,E100000120560,,,42233127,Durgmanwadi Mine,mineral-extraction,bauxite-mining
IGH Holdings Pvt Ltd,E100001010419,legal entity,335800E52FQAZNBKW310,5000932187,IND,IND,,IGH Holdings Pvt Ltd -> Hindalco Industries Ltd [15.58%] -> Durgmanwadi Mine [unknown %],,Hindalco Industries Ltd,E100000120560,,,42233127,Durgmanwadi Mine,mineral-extraction,bauxite-mining
Hindalco Industries Ltd,E100000120560,legal entity,335800KXLE5NO5B4GF90,4295873625,IND,IND,,Hindalco Industries Ltd -> Durgmanwadi Mine [unknown %],,Hindalco Industries Ltd,E100000120560,,,42233127,Durgmanwadi Mine,mineral-extraction,bauxite-mining
Life Insurance Corporation of India Ltd,E100001000520,legal entity,21380068NOA8WMH89Z35,4298477512,IND,IND,,Life Insurance Corporation of India Ltd -> Hindalco Industries Ltd [9.65%] -> Durgmanwadi Mine [unknown %],,Hindalco Industries Ltd,E100000120560,,,42233127,Durgmanwadi Mine,mineral-extraction,bauxite-mining
Birla Group Holdings Pvt Ltd,E100001010420,legal entity,335800ILCQTLE8K8I628,5000003697,IND,IND,,Birla Group Holdings Pvt Ltd -> Hindalco Industries Ltd [10.16%] -> Durgmanwadi Mine [unknown %],,Hindalco Industries Ltd,E100000120560,,,42233127,Durgmanwadi Mine,mineral-extraction,bauxite-mining
natural person(s),E100000123261,person,not applicable,not applicable,,,,natural person(s)  -> Hindalco Industries Ltd [5.16%] -> Durgmanwadi Mine [unknown %],,Hindalco Industries Ltd,E100000120560,,,42233127,Durgmanwadi Mine,mineral-extraction,bauxite-mining
Essel Mining & Industries Ltd,E100000153045,legal entity,3358006SBGEK8EC3HC67,4296015221,IND,IND,,Essel Mining & Industries Ltd -> IGH Holdings Pvt Ltd [100.0%] -> Hindalco Industries Ltd [15.58%] -> Durgmanwadi Mine [unknown %],,Hindalco Industries Ltd,E100000120560,,,42233127,Durgmanwadi Mine,mineral-extraction,bauxite-mining
small shareholder(s),E100001015587,unknown entity,not applicable,not applicable,,,,small shareholder(s)  -> Hindalco Industries Ltd [59.45%] -> Durgmanwadi Mine [unknown %],,Hindalco Industries Ltd,E100000120560,,,42233127,Durgmanwadi Mine,mineral-extraction,bauxite-mining
Aditya Birla Management Corporation Pvt Ltd,E100000120031,legal entity,335800GITXOP4O6TQM65,5000053377,IND,IND,,Aditya Birla Management Corporation Pvt Ltd -> Essel Mining & Industries Ltd [unknown %] -> IGH Holdings Pvt Ltd [100.0%] -> Hindalco Industries Ltd [15.58%] -> Durgmanwadi Mine [unknown %],,Hindalco Industries Ltd,E100000120560,,,42233127,Durgmanwadi Mine,mineral-extraction,bauxite-mining
natural person(s),E100000123261,person,not applicable,not applicable,,,,natural person(s)  -> Garhidadar Mine [unknown %],,natural person(s),E100000123261,,,42233128,Garhidadar Mine,mineral-extraction,bauxite-mining
Madhya Pradesh Minerals Supply Co,E100002011115,,,,,,,Madhya Pradesh Minerals Supply Co -> Ghatania Mine [unknown %],,Madhya Pradesh Minerals Supply Co,E100002011115,,,42233129,Ghatania Mine,mineral-extraction,bauxite-mining
Manjare Girgaon Mines Pvt Ltd,E100002011116,,,,,,,Manjare Girgaon Mines Pvt Ltd -> Girgaon Mine [unknown %],,Manjare Girgaon Mines Pvt Ltd,E100002011116,,,42233130,Girgaon Mine,mineral-extraction,bauxite-mining
Milind Sardessai Infrastructure Logistics Pvt Ltd,E100002011117,,,,,,,Milind Sardessai Infrastructure Logistics Pvt Ltd -> Gudeghar Mine [unknown %],,Milind Sardessai Infrastructure Logistics Pvt Ltd,E100002011117,,,42233131,Gudeghar Mine,mineral-extraction,bauxite-mining
Government of India,E100001000397,state,,5000055448,,IND,,Government of India  -> Life Insurance Corporation of India Ltd [96.5%] -> Hindalco Industries Ltd [9.65%] -> Gurdari Mine [unknown %],,Hindalco Industries Ltd,E100000120560,,,42233132,Gurdari Mine,mineral-extraction,bauxite-mining
IGH Holdings Pvt Ltd,E100001010419,legal entity,335800E52FQAZNBKW310,5000932187,IND,IND,,IGH Holdings Pvt Ltd -> Hindalco Industries Ltd [15.58%] -> Gurdari Mine [unknown %],,Hindalco Industries Ltd,E100000120560,,,42233132,Gurdari Mine,mineral-extraction,bauxite-mining
Hindalco Industries Ltd,E100000120560,legal entity,335800KXLE5NO5B4GF90,4295873625,IND,IND,,Hindalco Industries Ltd -> Gurdari Mine [unknown %],,Hindalco Industries Ltd,E100000120560,,,42233132,Gurdari Mine,mineral-extraction,bauxite-mining
Life Insurance Corporation of India Ltd,E100001000520,legal entity,21380068NOA8WMH89Z35,4298477512,IND,IND,,Life Insurance Corporation of India Ltd -> Hindalco Industries Ltd [9.65%] -> Gurdari Mine [unknown %],,Hindalco Industries Ltd,E100000120560,,,42233132,Gurdari Mine,mineral-extraction,bauxite-mining
Birla Group Holdings Pvt Ltd,E100001010420,legal entity,335800ILCQTLE8K8I628,5000003697,IND,IND,,Birla Group Holdings Pvt Ltd -> Hindalco Industries Ltd [10.16%] -> Gurdari Mine [unknown %],,Hindalco Industries Ltd,E100000120560,,,42233132,Gurdari Mine,mineral-extraction,bauxite-mining
natural person(s),E100000123261,person,not applicable,not applicable,,,,natural person(s)  -> Hindalco Industries Ltd [5.16%] -> Gurdari Mine [unknown %],,Hindalco Industries Ltd,E100000120560,,,42233132,Gurdari Mine,mineral-extraction,bauxite-mining
Essel Mining & Industries Ltd,E100000153045,legal entity,3358006SBGEK8EC3HC67,4296015221,IND,IND,,Essel Mining & Industries Ltd -> IGH Holdings Pvt Ltd [100.0%] -> Hindalco Industries Ltd [15.58%] -> Gurdari Mine [unknown %],,Hindalco Industries Ltd,E100000120560,,,42233132,Gurdari Mine,mineral-extraction,bauxite-mining
small shareholder(s),E100001015587,unknown entity,not applicable,not applicable,,,,small shareholder(s)  -> Hindalco Industries Ltd [59.45%] -> Gurdari Mine [unknown %],,Hindalco Industries Ltd,E100000120560,,,42233132,Gurdari Mine,mineral-extraction,bauxite-mining
Aditya Birla Management Corporation Pvt Ltd,E100000120031,legal entity,335800GITXOP4O6TQM65,5000053377,IND,IND,,Aditya Birla Management Corporation Pvt Ltd -> Essel Mining & Industries Ltd [unknown %] -> IGH Holdings Pvt Ltd [100.0%] -> Hindalco Industries Ltd [15.58%] -> Gurdari Mine [unknown %],,Hindalco Industries Ltd,E100000120560,,,42233132,Gurdari Mine,mineral-extraction,bauxite-mining
natural person(s),E100000123261,person,not applicable,not applicable,,,,natural person(s)  -> Habardi Mine [unknown %],,natural person(s),E100000123261,,,42233133,Habardi Mine,mineral-extraction,bauxite-mining
Saurashtra Calcine Bauxite and Allied Industries Ltd,E100002011119,legal entity,,,,,,Saurashtra Calcine Bauxite and Allied Industries Ltd -> Hadmatiya Mine [unknown %],,Saurashtra Calcine Bauxite and Allied Industries Ltd,E100002011119,,,42233134,Hadmatiya Mine,mineral-extraction,bauxite-mining
Grass Root Research and Creation India Pvt Ltd,E100002011120,legal entity,,,,,,Grass Root Research and Creation India Pvt Ltd -> Harup Mine [unknown %],,Grass Root Research and Creation India Pvt Ltd,E100002011120,,,42233135,Harup Mine,mineral-extraction,bauxite-mining
Government of India,E100001000397,state,,5000055448,,IND,,Government of India  -> Life Insurance Corporation of India Ltd [96.5%] -> Hindalco Industries Ltd [9.65%] -> Hisri Mine [unknown %],,Hindalco Industries Ltd,E100000120560,,,42233136,Hisri Mine,mineral-extraction,bauxite-mining
IGH Holdings Pvt Ltd,E100001010419,legal entity,335800E52FQAZNBKW310,5000932187,IND,IND,,IGH Holdings Pvt Ltd -> Hindalco Industries Ltd [15.58%] -> Hisri Mine [unknown %],,Hindalco Industries Ltd,E100000120560,,,42233136,Hisri Mine,mineral-extraction,bauxite-mining
Hindalco Industries Ltd,E100000120560,legal entity,335800KXLE5NO5B4GF90,4295873625,IND,IND,,Hindalco Industries Ltd -> Hisri Mine [unknown %],,Hindalco Industries Ltd,E100000120560,,,42233136,Hisri Mine,mineral-extraction,bauxite-mining
Life Insurance Corporation of India Ltd,E100001000520,legal entity,21380068NOA8WMH89Z35,4298477512,IND,IND,,Life Insurance Corporation of India Ltd -> Hindalco Industries Ltd [9.65%] -> Hisri Mine [unknown %],,Hindalco Industries Ltd,E100000120560,,,42233136,Hisri Mine,mineral-extraction,bauxite-mining
Birla Group Holdings Pvt Ltd,E100001010420,legal entity,335800ILCQTLE8K8I628,5000003697,IND,IND,,Birla Group Holdings Pvt Ltd -> Hindalco Industries Ltd [10.16%] -> Hisri Mine [unknown %],,Hindalco Industries Ltd,E100000120560,,,42233136,Hisri Mine,mineral-extraction,bauxite-mining
natural person(s),E100000123261,person,not applicable,not applicable,,,,natural person(s)  -> Hindalco Industries Ltd [5.16%] -> Hisri Mine [unknown %],,Hindalco Industries Ltd,E100000120560,,,42233136,Hisri Mine,mineral-extraction,bauxite-mining
Essel Mining & Industries Ltd,E100000153045,legal entity,3358006SBGEK8EC3HC67,4296015221,IND,IND,,Essel Mining & Industries Ltd -> IGH Holdings Pvt Ltd [100.0%] -> Hindalco Industries Ltd [15.58%] -> Hisri Mine [unknown %],,Hindalco Industries Ltd,E100000120560,,,42233136,Hisri Mine,mineral-extraction,bauxite-mining
small shareholder(s),E100001015587,unknown entity,not applicable,not applicable,,,,small shareholder(s)  -> Hindalco Industries Ltd [59.45%] -> Hisri Mine [unknown %],,Hindalco Industries Ltd,E100000120560,,,42233136,Hisri Mine,mineral-extraction,bauxite-mining
Aditya Birla Management Corporation Pvt Ltd,E100000120031,legal entity,335800GITXOP4O6TQM65,5000053377,IND,IND,,Aditya Birla Management Corporation Pvt Ltd -> Essel Mining & Industries Ltd [unknown %] -> IGH Holdings Pvt Ltd [100.0%] -> Hindalco Industries Ltd [15.58%] -> Hisri Mine [unknown %],,Hindalco Industries Ltd,E100000120560,,,42233136,Hisri Mine,mineral-extraction,bauxite-mining
natural person(s),E100000123261,person,not applicable,not applicable,,,,natural person(s)  -> Ismalia Mine [unknown %],,natural person(s),E100000123261,,,42233137,Ismalia Mine,mineral-extraction,bauxite-mining
Government of India,E100001000397,state,,5000055448,,IND,,Government of India  -> Life Insurance Corporation of India Ltd [96.5%] -> Hindalco Industries Ltd [9.65%] -> Jalim & Sanai Mine [unknown %],,Hindalco Industries Ltd,E100000120560,,,42233138,Jalim & Sanai Mine,mineral-extraction,bauxite-mining
IGH Holdings Pvt Ltd,E100001010419,legal entity,335800E52FQAZNBKW310,5000932187,IND,IND,,IGH Holdings Pvt Ltd -> Hindalco Industries Ltd [15.58%] -> Jalim & Sanai Mine [unknown %],,Hindalco Industries Ltd,E100000120560,,,42233138,Jalim & Sanai Mine,mineral-extraction,bauxite-mining
Hindalco Industries Ltd,E100000120560,legal entity,335800KXLE5NO5B4GF90,4295873625,IND,IND,,Hindalco Industries Ltd -> Jalim & Sanai Mine [unknown %],,Hindalco Industries Ltd,E100000120560,,,42233138,Jalim & Sanai Mine,mineral-extraction,bauxite-mining
Life Insurance Corporation of India Ltd,E100001000520,legal entity,21380068NOA8WMH89Z35,4298477512,IND,IND,,Life Insurance Corporation of India Ltd -> Hindalco Industries Ltd [9.65%] -> Jalim & Sanai Mine [unknown %],,Hindalco Industries Ltd,E100000120560,,,42233138,Jalim & Sanai Mine,mineral-extraction,bauxite-mining
Birla Group Holdings Pvt Ltd,E100001010420,legal entity,335800ILCQTLE8K8I628,5000003697,IND,IND,,Birla Group Holdings Pvt Ltd -> Hindalco Industries Ltd [10.16%] -> Jalim & Sanai Mine [unknown %],,Hindalco Industries Ltd,E100000120560,,,42233138,Jalim & Sanai Mine,mineral-extraction,bauxite-mining
Essel Mining & Industries Ltd,E100000153045,legal entity,3358006SBGEK8EC3HC67,4296015221,IND,IND,,Essel Mining & Industries Ltd -> IGH Holdings Pvt Ltd [100.0%] -> Hindalco Industries Ltd [15.58%] -> Jalim & Sanai Mine [unknown %],,Hindalco Industries Ltd,E100000120560,,,42233138,Jalim & Sanai Mine,mineral-extraction,bauxite-mining
small shareholder(s),E100001015587,unknown entity,not applicable,not applicable,,,,small shareholder(s)  -> Hindalco Industries Ltd [59.45%] -> Jalim & Sanai Mine [unknown %],,Hindalco Industries Ltd,E100000120560,,,42233138,Jalim & Sanai Mine,mineral-extraction,bauxite-mining
Aditya Birla Management Corporation Pvt Ltd,E100000120031,legal entity,335800GITXOP4O6TQM65,5000053377,IND,IND,,Aditya Birla Management Corporation Pvt Ltd -> Essel Mining & Industries Ltd [unknown %] -> IGH Holdings Pvt Ltd [100.0%] -> Hindalco Industries Ltd [15.58%] -> Jalim & Sanai Mine [unknown %],,Hindalco Industries Ltd,E100000120560,,,42233138,Jalim & Sanai Mine,mineral-extraction,bauxite-mining
natural person(s),E100000123261,person,not applicable,not applicable,,,,natural person(s)  -> Hindalco Industries Ltd [5.16%] -> Jalim & Sanai Mine [unknown %],,Hindalco Industries Ltd,E100000120560,,,42233138,Jalim & Sanai Mine,mineral-extraction,bauxite-mining
SNS Ltd,E100002011122,,,,,,,SNS Ltd -> Jamuwanikalan Mine [unknown %],,SNS Ltd,E100002011122,,,42233139,Jamuwanikalan Mine,mineral-extraction,bauxite-mining
Government of India,E100001000397,state,,5000055448,,IND,,Government of India  -> Life Insurance Corporation of India Ltd [96.5%] -> Hindalco Industries Ltd [9.65%] -> Jobhipat Mine [unknown %],,Hindalco Industries Ltd,E100000120560,,,42233140,Jobhipat Mine,mineral-extraction,bauxite-mining
IGH Holdings Pvt Ltd,E100001010419,legal entity,335800E52FQAZNBKW310,5000932187,IND,IND,,IGH Holdings Pvt Ltd -> Hindalco Industries Ltd [15.58%] -> Jobhipat Mine [unknown %],,Hindalco Industries Ltd,E100000120560,,,42233140,Jobhipat Mine,mineral-extraction,bauxite-mining
Hindalco Industries Ltd,E100000120560,legal entity,335800KXLE5NO5B4GF90,4295873625,IND,IND,,Hindalco Industries Ltd -> Jobhipat Mine [unknown %],,Hindalco Industries Ltd,E100000120560,,,42233140,Jobhipat Mine,mineral-extraction,bauxite-mining
Life Insurance Corporation of India Ltd,E100001000520,legal entity,21380068NOA8WMH89Z35,4298477512,IND,IND,,Life Insurance Corporation of India Ltd -> Hindalco Industries Ltd [9.65%] -> Jobhipat Mine [unknown %],,Hindalco Industries Ltd,E100000120560,,,42233140,Jobhipat Mine,mineral-extraction,bauxite-mining
Birla Group Holdings Pvt Ltd,E100001010420,legal entity,335800ILCQTLE8K8I628,5000003697,IND,IND,,Birla Group Holdings Pvt Ltd -> Hindalco Industries Ltd [10.16%] -> Jobhipat Mine [unknown %],,Hindalco Industries Ltd,E100000120560,,,42233140,Jobhipat Mine,mineral-extraction,bauxite-mining
natural person(s),E100000123261,person,not applicable,not applicable,,,,natural person(s)  -> Hindalco Industries Ltd [5.16%] -> Jobhipat Mine [unknown %],,Hindalco Industries Ltd,E100000120560,,,42233140,Jobhipat Mine,mineral-extraction,bauxite-mining
Essel Mining & Industries Ltd,E100000153045,legal entity,3358006SBGEK8EC3HC67,4296015221,IND,IND,,Essel Mining & Industries Ltd -> IGH Holdings Pvt Ltd [100.0%] -> Hindalco Industries Ltd [15.58%] -> Jobhipat Mine [unknown %],,Hindalco Industries Ltd,E100000120560,,,42233140,Jobhipat Mine,mineral-extraction,bauxite-mining
small shareholder(s),E100001015587,unknown entity,not applicable,not applicable,,,,small shareholder(s)  -> Hindalco Industries Ltd [59.45%] -> Jobhipat Mine [unknown %],,Hindalco Industries Ltd,E100000120560,,,42233140,Jobhipat Mine,mineral-extraction,bauxite-mining
Aditya Birla Management Corporation Pvt Ltd,E100000120031,legal entity,335800GITXOP4O6TQM65,5000053377,IND,IND,,Aditya Birla Management Corporation Pvt Ltd -> Essel Mining & Industries Ltd [unknown %] -> IGH Holdings Pvt Ltd [100.0%] -> Hindalco Industries Ltd [15.58%] -> Jobhipat Mine [unknown %],,Hindalco Industries Ltd,E100000120560,,,42233140,Jobhipat Mine,mineral-extraction,bauxite-mining
Rakesh Agencies Pvt Ltd,E100002011123,,,,,,,Rakesh Agencies Pvt Ltd -> Karigohi Mine [unknown %],,Rakesh Agencies Pvt Ltd,E100002011123,,,42233141,Karigohi Mine,mineral-extraction,bauxite-mining
Prachi Mines Corp,E100002011124,,,,,,,Prachi Mines Corp -> Karivane Mine [unknown %],,Prachi Mines Corp,E100002011124,,,42233142,Karivane Mine,mineral-extraction,bauxite-mining
natural person(s),E100000123261,person,not applicable,not applicable,,,,natural person(s)  -> Kavadoli Mine [unknown %],,natural person(s),E100000123261,,,42233143,Kavadoli Mine,mineral-extraction,bauxite-mining
Prabhudas Vithaldas,E100002011126,,,,,,,Prabhudas Vithaldas  -> Kenedi Mine [unknown %],,Prabhudas Vithaldas,E100002011126,,,42233144,Kenedi Mine,mineral-extraction,bauxite-mining
,,,,,,,,,,,,Bharat Aluminum Co Ltd,E100001010032,42233145,Kesara Mine,mineral-extraction,bauxite-mining
Vedanta Resources PLC,E100002011099,,,,,,,Vedanta Resources PLC -> Kesara Mine [unknown %],,Vedanta Resources PLC,E100002011099,,,42233145,Kesara Mine,mineral-extraction,bauxite-mining
natural person(s),E100000123261,person,not applicable,not applicable,,,,natural person(s)  -> Keshav Mine [unknown %],,natural person(s),E100000123261,,,42233146,Keshav Mine,mineral-extraction,bauxite-mining
Krishna Mines and Minerals Ltd,E100002011128,legal entity,,,,,,Krishna Mines and Minerals Ltd -> Khamparia Mine [unknown %],,Krishna Mines and Minerals Ltd,E100002011128,,,42233147,Khamparia Mine,mineral-extraction,bauxite-mining
State of Odisha,E100001001022,state,,5000055861,,IND,,State of Odisha  -> Odisha Mining Corporation Ltd [100.0%] -> Kodingamali Mine [unknown %],,Odisha Mining Corporation Ltd,E100002000286,,,42233148,Kodingamali Mine,mineral-extraction,bauxite-mining
Odisha Mining Corporation Ltd,E100002000286,legal entity,335800Z5WJ9SHF65LQ72,5037852553,IND,IND,,Odisha Mining Corporation Ltd -> Kodingamali Mine [unknown %],,Odisha Mining Corporation Ltd,E100002000286,,,42233148,Kodingamali Mine,mineral-extraction,bauxite-mining
Kunjilal Ishwari Prasad Agrawal,E100002011104,,,,,,,Kunjilal Ishwari Prasad Agrawal  -> Koldiya Mine [unknown %],,Kunjilal Ishwari Prasad Agrawal,E100002011104,,,42233149,Koldiya Mine,mineral-extraction,bauxite-mining
Government of India,E100001000397,state,,5000055448,,IND,,Government of India  -> Life Insurance Corporation of India Ltd [96.5%] -> Hindalco Industries Ltd [9.65%] -> Kudag Mine [unknown %],,Hindalco Industries Ltd,E100000120560,,,42233150,Kudag Mine,mineral-extraction,bauxite-mining
IGH Holdings Pvt Ltd,E100001010419,legal entity,335800E52FQAZNBKW310,5000932187,IND,IND,,IGH Holdings Pvt Ltd -> Hindalco Industries Ltd [15.58%] -> Kudag Mine [unknown %],,Hindalco Industries Ltd,E100000120560,,,42233150,Kudag Mine,mineral-extraction,bauxite-mining
Hindalco Industries Ltd,E100000120560,legal entity,335800KXLE5NO5B4GF90,4295873625,IND,IND,,Hindalco Industries Ltd -> Kudag Mine [unknown %],,Hindalco Industries Ltd,E100000120560,,,42233150,Kudag Mine,mineral-extraction,bauxite-mining
Life Insurance Corporation of India Ltd,E100001000520,legal entity,21380068NOA8WMH89Z35,4298477512,IND,IND,,Life Insurance Corporation of India Ltd -> Hindalco Industries Ltd [9.65%] -> Kudag Mine [unknown %],,Hindalco Industries Ltd,E100000120560,,,42233150,Kudag Mine,mineral-extraction,bauxite-mining
Birla Group Holdings Pvt Ltd,E100001010420,legal entity,335800ILCQTLE8K8I628,5000003697,IND,IND,,Birla Group Holdings Pvt Ltd -> Hindalco Industries Ltd [10.16%] -> Kudag Mine [unknown %],,Hindalco Industries Ltd,E100000120560,,,42233150,Kudag Mine,mineral-extraction,bauxite-mining
natural person(s),E100000123261,person,not applicable,not applicable,,,,natural person(s)  -> Hindalco Industries Ltd [5.16%] -> Kudag Mine [unknown %],,Hindalco Industries Ltd,E100000120560,,,42233150,Kudag Mine,mineral-extraction,bauxite-mining
Essel Mining & Industries Ltd,E100000153045,legal entity,3358006SBGEK8EC3HC67,4296015221,IND,IND,,Essel Mining & Industries Ltd -> IGH Holdings Pvt Ltd [100.0%] -> Hindalco Industries Ltd [15.58%] -> Kudag Mine [unknown %],,Hindalco Industries Ltd,E100000120560,,,42233150,Kudag Mine,mineral-extraction,bauxite-mining
small shareholder(s),E100001015587,unknown entity,not applicable,not applicable,,,,small shareholder(s)  -> Hindalco Industries Ltd [59.45%] -> Kudag Mine [unknown %],,Hindalco Industries Ltd,E100000120560,,,42233150,Kudag Mine,mineral-extraction,bauxite-mining
Aditya Birla Management Corporation Pvt Ltd,E100000120031,legal entity,335800GITXOP4O6TQM65,5000053377,IND,IND,,Aditya Birla Management Corporation Pvt Ltd -> Essel Mining & Industries Ltd [unknown %] -> IGH Holdings Pvt Ltd [100.0%] -> Hindalco Industries Ltd [15.58%] -> Kudag Mine [unknown %],,Hindalco Industries Ltd,E100000120560,,,42233150,Kudag Mine,mineral-extraction,bauxite-mining
,,,,,,,,,,,,Bharat Aluminum Co Ltd,E100001010032,42233151,Kudaridih East Mine,mineral-extraction,bauxite-mining
Vedanta Resources PLC,E100002011099,,,,,,,Vedanta Resources PLC -> Kudaridih East Mine [unknown %],,Vedanta Resources PLC,E100002011099,,,42233151,Kudaridih East Mine,mineral-extraction,bauxite-mining
,,,,,,,,,,,,Bharat Aluminum Co Ltd,E100001010032,42233152,Kudaridih West Mine,mineral-extraction,bauxite-mining
Vedanta Resources PLC,E100002011099,,,,,,,Vedanta Resources PLC -> Kudaridih West Mine [unknown %],,Vedanta Resources PLC,E100002011099,,,42233152,Kudaridih West Mine,mineral-extraction,bauxite-mining
Bharatesh Construction Co,E100002011110,,,,,,,Bharatesh Construction Co -> Kudgaon Mine [unknown %],,Bharatesh Construction Co,E100002011110,,,42233153,Kudgaon Mine,mineral-extraction,bauxite-mining
Government of India,E100001000397,state,,5000055448,,IND,,Government of India  -> Life Insurance Corporation of India Ltd [96.5%] -> Hindalco Industries Ltd [9.65%] -> Kujam Mine [unknown %],,Hindalco Industries Ltd,E100000120560,,,42233154,Kujam Mine,mineral-extraction,bauxite-mining
IGH Holdings Pvt Ltd,E100001010419,legal entity,335800E52FQAZNBKW310,5000932187,IND,IND,,IGH Holdings Pvt Ltd -> Hindalco Industries Ltd [15.58%] -> Kujam Mine [unknown %],,Hindalco Industries Ltd,E100000120560,,,42233154,Kujam Mine,mineral-extraction,bauxite-mining
Hindalco Industries Ltd,E100000120560,legal entity,335800KXLE5NO5B4GF90,4295873625,IND,IND,,Hindalco Industries Ltd -> Kujam Mine [unknown %],,Hindalco Industries Ltd,E100000120560,,,42233154,Kujam Mine,mineral-extraction,bauxite-mining
Life Insurance Corporation of India Ltd,E100001000520,legal entity,21380068NOA8WMH89Z35,4298477512,IND,IND,,Life Insurance Corporation of India Ltd -> Hindalco Industries Ltd [9.65%] -> Kujam Mine [unknown %],,Hindalco Industries Ltd,E100000120560,,,42233154,Kujam Mine,mineral-extraction,bauxite-mining
Birla Group Holdings Pvt Ltd,E100001010420,legal entity,335800ILCQTLE8K8I628,5000003697,IND,IND,,Birla Group Holdings Pvt Ltd -> Hindalco Industries Ltd [10.16%] -> Kujam Mine [unknown %],,Hindalco Industries Ltd,E100000120560,,,42233154,Kujam Mine,mineral-extraction,bauxite-mining
natural person(s),E100000123261,person,not applicable,not applicable,,,,natural person(s)  -> Hindalco Industries Ltd [5.16%] -> Kujam Mine [unknown %],,Hindalco Industries Ltd,E100000120560,,,42233154,Kujam Mine,mineral-extraction,bauxite-mining
Essel Mining & Industries Ltd,E100000153045,legal entity,3358006SBGEK8EC3HC67,4296015221,IND,IND,,Essel Mining & Industries Ltd -> IGH Holdings Pvt Ltd [100.0%] -> Hindalco Industries Ltd [15.58%] -> Kujam Mine [unknown %],,Hindalco Industries Ltd,E100000120560,,,42233154,Kujam Mine,mineral-extraction,bauxite-mining
small shareholder(s),E100001015587,unknown entity,not applicable,not applicable,,,,small shareholder(s)  -> Hindalco Industries Ltd [59.45%] -> Kujam Mine [unknown %],,Hindalco Industries Ltd,E100000120560,,,42233154,Kujam Mine,mineral-extraction,bauxite-mining
Aditya Birla Management Corporation Pvt Ltd,E100000120031,legal entity,335800GITXOP4O6TQM65,5000053377,IND,IND,,Aditya Birla Management Corporation Pvt Ltd -> Essel Mining & Industries Ltd [unknown %] -> IGH Holdings Pvt Ltd [100.0%] -> Hindalco Industries Ltd [15.58%] -> Kujam Mine [unknown %],,Hindalco Industries Ltd,E100000120560,,,42233154,Kujam Mine,mineral-extraction,bauxite-mining
Alatge Stone Crushing Industries,E100002011102,,,,,,,Alatge Stone Crushing Industries  -> Kurawade-Maral Mine [unknown %],,Alatge Stone Crushing Industries,E100002011102,,,42233155,Kurawade-Maral Mine,mineral-extraction,bauxite-mining
Bansal Khanij Udyog,E100002011130,,,,,,,Bansal Khanij Udyog  -> Kushiyara Mine [unknown %],,Bansal Khanij Udyog,E100002011130,,,42233156,Kushiyara Mine,mineral-extraction,bauxite-mining
Orient Ceratech Ltd,E100002011101,,,,,,,Orient Ceratech Ltd -> Lamba Mine [unknown %],,Orient Ceratech Ltd,E100002011101,,,42233158,Lamba Mine,mineral-extraction,bauxite-mining
natural person(s),E100000123261,person,not applicable,not applicable,,,,natural person(s)  -> Mahadevia-Gandhvi Mine [unknown %],,natural person(s),E100000123261,,,42233159,Mahadevia-Gandhvi Mine,mineral-extraction,bauxite-mining
Carborundum Universal Ltd,E100002011132,,,,,,,Carborundum Universal Ltd -> Mahadeviya Mine [unknown %],,Carborundum Universal Ltd,E100002011132,,,42233160,Mahadeviya Mine,mineral-extraction,bauxite-mining
Vyaghreshwar Mineral Industrial Producers Coop Soc Ltd,E100002011133,,,,,,,Vyaghreshwar Mineral Industrial Producers Coop Soc Ltd -> Mahalmirya Mine [unknown %],,Vyaghreshwar Mineral Industrial Producers Coop Soc Ltd,E100002011133,,,42233161,Mahalmirya Mine,mineral-extraction,bauxite-mining
Government of India,E100001000397,state,,5000055448,,IND,,Government of India  -> Life Insurance Corporation of India Ltd [96.5%] -> Hindalco Industries Ltd [9.65%] -> Maliparbat Mine [unknown %],,Hindalco Industries Ltd,E100000120560,,,42233162,Maliparbat Mine,mineral-extraction,bauxite-mining
IGH Holdings Pvt Ltd,E100001010419,legal entity,335800E52FQAZNBKW310,5000932187,IND,IND,,IGH Holdings Pvt Ltd -> Hindalco Industries Ltd [15.58%] -> Maliparbat Mine [unknown %],,Hindalco Industries Ltd,E100000120560,,,42233162,Maliparbat Mine,mineral-extraction,bauxite-mining
Hindalco Industries Ltd,E100000120560,legal entity,335800KXLE5NO5B4GF90,4295873625,IND,IND,,Hindalco Industries Ltd -> Maliparbat Mine [unknown %],,Hindalco Industries Ltd,E100000120560,,,42233162,Maliparbat Mine,mineral-extraction,bauxite-mining
Life Insurance Corporation of India Ltd,E100001000520,legal entity,21380068NOA8WMH89Z35,4298477512,IND,IND,,Life Insurance Corporation of India Ltd -> Hindalco Industries Ltd [9.65%] -> Maliparbat Mine [unknown %],,Hindalco Industries Ltd,E100000120560,,,42233162,Maliparbat Mine,mineral-extraction,bauxite-mining
Birla Group Holdings Pvt Ltd,E100001010420,legal entity,335800ILCQTLE8K8I628,5000003697,IND,IND,,Birla Group Holdings Pvt Ltd -> Hindalco Industries Ltd [10.16%] -> Maliparbat Mine [unknown %],,Hindalco Industries Ltd,E100000120560,,,42233162,Maliparbat Mine,mineral-extraction,bauxite-mining
Essel Mining & Industries Ltd,E100000153045,legal entity,3358006SBGEK8EC3HC67,4296015221,IND,IND,,Essel Mining & Industries Ltd -> IGH Holdings Pvt Ltd [100.0%] -> Hindalco Industries Ltd [15.58%] -> Maliparbat Mine [unknown %],,Hindalco Industries Ltd,E100000120560,,,42233162,Maliparbat Mine,mineral-extraction,bauxite-mining
small shareholder(s),E100001015587,unknown entity,not applicable,not applicable,,,,small shareholder(s)  -> Hindalco Industries Ltd [59.45%] -> Maliparbat Mine [unknown %],,Hindalco Industries Ltd,E100000120560,,,42233162,Maliparbat Mine,mineral-extraction,bauxite-mining
Aditya Birla Management Corporation Pvt Ltd,E100000120031,legal entity,335800GITXOP4O6TQM65,5000053377,IND,IND,,Aditya Birla Management Corporation Pvt Ltd -> Essel Mining & Industries Ltd [unknown %] -> IGH Holdings Pvt Ltd [100.0%] -> Hindalco Industries Ltd [15.58%] -> Maliparbat Mine [unknown %],,Hindalco Industries Ltd,E100000120560,,,42233162,Maliparbat Mine,mineral-extraction,bauxite-mining
natural person(s),E100000123261,person,not applicable,not applicable,,,,natural person(s)  -> Hindalco Industries Ltd [5.16%] -> Maliparbat Mine [unknown %],,Hindalco Industries Ltd,E100000120560,,,42233162,Maliparbat Mine,mineral-extraction,bauxite-mining
natural person(s),E100000123261,person,not applicable,not applicable,,,,natural person(s)  -> Meghare Mine [unknown %],,natural person(s),E100000123261,,,42233164,Meghare Mine,mineral-extraction,bauxite-mining
natural person(s),E100000123261,person,not applicable,not applicable,,,,natural person(s)  -> Mevasa Laterite Mine [unknown %],,natural person(s),E100000123261,,,42233165,Mevasa Laterite Mine,mineral-extraction,bauxite-mining
State of Gujarat,E100000131638,state,,5000004492,,IND,,State of Gujarat  -> Gujarat Mineral Development Co Ltd [74.0%] -> Mevasa Mine [unknown %],,Gujarat Mineral Development Co Ltd,E100001000669,,,42233166,Mevasa Mine,mineral-extraction,bauxite-mining
Gujarat Mineral Development Co Ltd,E100001000669,legal entity,335800B8OP5L7DH9VD35,4295872462,IND,IND,,Gujarat Mineral Development Co Ltd -> Mevasa Mine [unknown %],,Gujarat Mineral Development Co Ltd,E100001000669,,,42233166,Mevasa Mine,mineral-extraction,bauxite-mining
natural person(s),E100000123261,person,not applicable,not applicable,,,,natural person(s)  -> Gujarat Mineral Development Co Ltd [18.22%] -> Mevasa Mine [unknown %],,Gujarat Mineral Development Co Ltd,E100001000669,,,42233166,Mevasa Mine,mineral-extraction,bauxite-mining
small shareholder(s),E100001015587,unknown entity,not applicable,not applicable,,,,small shareholder(s)  -> Gujarat Mineral Development Co Ltd [7.78%] -> Mevasa Mine [unknown %],,Gujarat Mineral Development Co Ltd,E100001000669,,,42233166,Mevasa Mine,mineral-extraction,bauxite-mining
Panditrao Mines and Minerals Pvt Ltd,E100002011136,legal entity,,,,,,Panditrao Mines and Minerals Pvt Ltd -> Minche Budruk Mine [unknown %],,Panditrao Mines and Minerals Pvt Ltd,E100002011136,,,42233167,Minche Budruk Mine,mineral-extraction,bauxite-mining
natural person(s),E100000123261,person,not applicable,not applicable,,,,natural person(s)  -> Mohla Mine [unknown %],,natural person(s),E100000123261,,,42233168,Mohla Mine,mineral-extraction,bauxite-mining
Orient Ceratech Ltd,E100002011101,,,,,,,Orient Ceratech Ltd -> Mordhar Mine [unknown %],,Orient Ceratech Ltd,E100002011101,,,42233169,Mordhar Mine,mineral-extraction,bauxite-mining
Saurashtra Calcine Bauxite and Allied Industries Ltd,E100002011119,legal entity,,,,,,Saurashtra Calcine Bauxite and Allied Industries Ltd -> Mota Asota Mine [unknown %],,Saurashtra Calcine Bauxite and Allied Industries Ltd,E100002011119,,,42233170,Mota Asota Mine,mineral-extraction,bauxite-mining
State of Gujarat,E100000131638,state,,5000004492,,IND,,State of Gujarat  -> Gujarat Mineral Development Co Ltd [74.0%] -> Mothala-Balachod Mine [unknown %],,Gujarat Mineral Development Co Ltd,E100001000669,,,42233171,Mothala-Balachod Mine,mineral-extraction,bauxite-mining
Gujarat Mineral Development Co Ltd,E100001000669,legal entity,335800B8OP5L7DH9VD35,4295872462,IND,IND,,Gujarat Mineral Development Co Ltd -> Mothala-Balachod Mine [unknown %],,Gujarat Mineral Development Co Ltd,E100001000669,,,42233171,Mothala-Balachod Mine,mineral-extraction,bauxite-mining
natural person(s),E100000123261,person,not applicable,not applicable,,,,natural person(s)  -> Gujarat Mineral Development Co Ltd [18.22%] -> Mothala-Balachod Mine [unknown %],,Gujarat Mineral Development Co Ltd,E100001000669,,,42233171,Mothala-Balachod Mine,mineral-extraction,bauxite-mining
small shareholder(s),E100001015587,unknown entity,not applicable,not applicable,,,,small shareholder(s)  -> Gujarat Mineral Development Co Ltd [7.78%] -> Mothala-Balachod Mine [unknown %],,Gujarat Mineral Development Co Ltd,E100001000669,,,42233171,Mothala-Balachod Mine,mineral-extraction,bauxite-mining
natural person(s),E100000123261,person,not applicable,not applicable,,,,natural person(s)  -> Mungwari Mine [unknown %],,natural person(s),E100000123261,,,42233172,Mungwari Mine,mineral-extraction,bauxite-mining
natural person(s),E100000123261,person,not applicable,not applicable,,,,natural person(s)  -> Naikin Mine [unknown %],,natural person(s),E100000123261,,,42233173,Naikin Mine,mineral-extraction,bauxite-mining
natural person(s),E100000123261,person,not applicable,not applicable,,,,natural person(s)  -> Naikin-II Mine [unknown %],,natural person(s),E100000123261,,,42233174,Naikin-II Mine,mineral-extraction,bauxite-mining
natural person(s),E100000123261,person,not applicable,not applicable,,,,natural person(s)  -> Nana-Goniyasar Mine [unknown %],,natural person(s),E100000123261,,,42233175,Nana-Goniyasar Mine,mineral-extraction,bauxite-mining
Bombay Minerals Ltd,E100002011100,,,,,,,Bombay Minerals Ltd -> Nandana Mine [unknown %],,Bombay Minerals Ltd,E100002011100,,,42233176,Nandana Mine,mineral-extraction,bauxite-mining
natural person(s),E100000123261,person,not applicable,not applicable,,,,natural person(s)  -> Naredi-2 Mine [unknown %],,natural person(s),E100000123261,,,42233177,Naredi-2 Mine,mineral-extraction,bauxite-mining
natural person(s),E100000123261,person,not applicable,not applicable,,,,natural person(s)  -> Naredi-Nandra Mine [unknown %],,natural person(s),E100000123261,,,42233178,Naredi-Nandra Mine,mineral-extraction,bauxite-mining
MMP Singh,E100002011140,,,,,,,MMP Singh  -> Narma Mine [unknown %],,MMP Singh,E100002011140,,,42233179,Narma Mine,mineral-extraction,bauxite-mining
Imperial Mining Syndicate Ltd,E100002011141,,,,,,,Imperial Mining Syndicate Ltd -> Navadra Mine [unknown %],,Imperial Mining Syndicate Ltd,E100002011141,,,42233180,Navadra Mine,mineral-extraction,bauxite-mining
Orient Ceratech Ltd,E100002011101,,,,,,,Orient Ceratech Ltd -> OBM-II Mine [unknown %],,Orient Ceratech Ltd,E100002011101,,,42233181,OBM-II Mine,mineral-extraction,bauxite-mining
Orient Ceratech Ltd,E100002011101,,,,,,,Orient Ceratech Ltd -> OBM-V Mine [unknown %],,Orient Ceratech Ltd,E100002011101,,,42233182,OBM-V Mine,mineral-extraction,bauxite-mining
Government of India,E100001000397,state,,5000055448,,IND,,Government of India  -> Life Insurance Corporation of India Ltd [96.5%] -> Hindalco Industries Ltd [9.65%] -> Orsa Mine [unknown %],,Hindalco Industries Ltd,E100000120560,,,42233183,Orsa Mine,mineral-extraction,bauxite-mining
IGH Holdings Pvt Ltd,E100001010419,legal entity,335800E52FQAZNBKW310,5000932187,IND,IND,,IGH Holdings Pvt Ltd -> Hindalco Industries Ltd [15.58%] -> Orsa Mine [unknown %],,Hindalco Industries Ltd,E100000120560,,,42233183,Orsa Mine,mineral-extraction,bauxite-mining
Hindalco Industries Ltd,E100000120560,legal entity,335800KXLE5NO5B4GF90,4295873625,IND,IND,,Hindalco Industries Ltd -> Orsa Mine [unknown %],,Hindalco Industries Ltd,E100000120560,,,42233183,Orsa Mine,mineral-extraction,bauxite-mining
Life Insurance Corporation of India Ltd,E100001000520,legal entity,21380068NOA8WMH89Z35,4298477512,IND,IND,,Life Insurance Corporation of India Ltd -> Hindalco Industries Ltd [9.65%] -> Orsa Mine [unknown %],,Hindalco Industries Ltd,E100000120560,,,42233183,Orsa Mine,mineral-extraction,bauxite-mining
Birla Group Holdings Pvt Ltd,E100001010420,legal entity,335800ILCQTLE8K8I628,5000003697,IND,IND,,Birla Group Holdings Pvt Ltd -> Hindalco Industries Ltd [10.16%] -> Orsa Mine [unknown %],,Hindalco Industries Ltd,E100000120560,,,42233183,Orsa Mine,mineral-extraction,bauxite-mining
natural person(s),E100000123261,person,not applicable,not applicable,,,,natural person(s)  -> Hindalco Industries Ltd [5.16%] -> Orsa Mine [unknown %],,Hindalco Industries Ltd,E100000120560,,,42233183,Orsa Mine,mineral-extraction,bauxite-mining
Essel Mining & Industries Ltd,E100000153045,legal entity,3358006SBGEK8EC3HC67,4296015221,IND,IND,,Essel Mining & Industries Ltd -> IGH Holdings Pvt Ltd [100.0%] -> Hindalco Industries Ltd [15.58%] -> Orsa Mine [unknown %],,Hindalco Industries Ltd,E100000120560,,,42233183,Orsa Mine,mineral-extraction,bauxite-mining
small shareholder(s),E100001015587,unknown entity,not applicable,not applicable,,,,small shareholder(s)  -> Hindalco Industries Ltd [59.45%] -> Orsa Mine [unknown %],,Hindalco Industries Ltd,E100000120560,,,42233183,Orsa Mine,mineral-extraction,bauxite-mining
Aditya Birla Management Corporation Pvt Ltd,E100000120031,legal entity,335800GITXOP4O6TQM65,5000053377,IND,IND,,Aditya Birla Management Corporation Pvt Ltd -> Essel Mining & Industries Ltd [unknown %] -> IGH Holdings Pvt Ltd [100.0%] -> Hindalco Industries Ltd [15.58%] -> Orsa Mine [unknown %],,Hindalco Industries Ltd,E100000120560,,,42233183,Orsa Mine,mineral-extraction,bauxite-mining
Adnan Minerals Pvt Ltd,E100002011142,,,,,,,Adnan Minerals Pvt Ltd -> Padrehi Mine [unknown %],,Adnan Minerals Pvt Ltd,E100002011142,,,42233184,Padrehi Mine,mineral-extraction,bauxite-mining
Katni Minerals Pvt Ltd,E100002011929,legal entity,,,,,,Katni Minerals Pvt Ltd -> Padwar Mine [unknown %],,Katni Minerals Pvt Ltd,E100002011929,,,42233185,Padwar Mine,mineral-extraction,bauxite-mining
small shareholder(s),E100001015587,unknown entity,not applicable,not applicable,,,,small shareholder(s)  -> Hindalco Industries Ltd [59.45%] -> Pakhar Mine [unknown %],,Hindalco Industries Ltd,E100000120560,,,42233186,Pakhar Mine,mineral-extraction,bauxite-mining
Government of India,E100001000397,state,,5000055448,,IND,,Government of India  -> Life Insurance Corporation of India Ltd [96.5%] -> Hindalco Industries Ltd [9.65%] -> Pakhar Mine [unknown %],,Hindalco Industries Ltd,E100000120560,,,42233186,Pakhar Mine,mineral-extraction,bauxite-mining
IGH Holdings Pvt Ltd,E100001010419,legal entity,335800E52FQAZNBKW310,5000932187,IND,IND,,IGH Holdings Pvt Ltd -> Hindalco Industries Ltd [15.58%] -> Pakhar Mine [unknown %],,Hindalco Industries Ltd,E100000120560,,,42233186,Pakhar Mine,mineral-extraction,bauxite-mining
Hindalco Industries Ltd,E100000120560,legal entity,335800KXLE5NO5B4GF90,4295873625,IND,IND,,Hindalco Industries Ltd -> Pakhar Mine [unknown %],,Hindalco Industries Ltd,E100000120560,,,42233186,Pakhar Mine,mineral-extraction,bauxite-mining
Life Insurance Corporation of India Ltd,E100001000520,legal entity,21380068NOA8WMH89Z35,4298477512,IND,IND,,Life Insurance Corporation of India Ltd -> Hindalco Industries Ltd [9.65%] -> Pakhar Mine [unknown %],,Hindalco Industries Ltd,E100000120560,,,42233186,Pakhar Mine,mineral-extraction,bauxite-mining
Birla Group Holdings Pvt Ltd,E100001010420,legal entity,335800ILCQTLE8K8I628,5000003697,IND,IND,,Birla Group Holdings Pvt Ltd -> Hindalco Industries Ltd [10.16%] -> Pakhar Mine [unknown %],,Hindalco Industries Ltd,E100000120560,,,42233186,Pakhar Mine,mineral-extraction,bauxite-mining
natural person(s),E100000123261,person,not applicable,not applicable,,,,natural person(s)  -> Hindalco Industries Ltd [5.16%] -> Pakhar Mine [unknown %],,Hindalco Industries Ltd,E100000120560,,,42233186,Pakhar Mine,mineral-extraction,bauxite-mining
Essel Mining & Industries Ltd,E100000153045,legal entity,3358006SBGEK8EC3HC67,4296015221,IND,IND,,Essel Mining & Industries Ltd -> IGH Holdings Pvt Ltd [100.0%] -> Hindalco Industries Ltd [15.58%] -> Pakhar Mine [unknown %],,Hindalco Industries Ltd,E100000120560,,,42233186,Pakhar Mine,mineral-extraction,bauxite-mining
Aditya Birla Management Corporation Pvt Ltd,E100000120031,legal entity,335800GITXOP4O6TQM65,5000053377,IND,IND,,Aditya Birla Management Corporation Pvt Ltd -> Essel Mining & Industries Ltd [unknown %] -> IGH Holdings Pvt Ltd [100.0%] -> Hindalco Industries Ltd [15.58%] -> Pakhar Mine [unknown %],,Hindalco Industries Ltd,E100000120560,,,42233186,Pakhar Mine,mineral-extraction,bauxite-mining
Saurashtra Minerals Pvt Ltd,E100002011143,,,,,,,Saurashtra Minerals Pvt Ltd -> Palakhada Mine [unknown %],,Saurashtra Minerals Pvt Ltd,E100002011143,,,42233187,Palakhada Mine,mineral-extraction,bauxite-mining
natural person(s),E100000123261,person,not applicable,not applicable,,,,natural person(s)  -> Pamariya Mine [unknown %],,natural person(s),E100000123261,,,42233188,Pamariya Mine,mineral-extraction,bauxite-mining
Government of India,E100001000397,state,,5000055448,,IND,,Government of India  -> National Aluminium Co Ltd [51.28%] -> Panchpatmalli Mine [unknown %],,National Aluminium Co Ltd,E100000000522,,,42233189,Panchpatmalli Mine,mineral-extraction,bauxite-mining
National Aluminium Co Ltd,E100000000522,legal entity,335800OM1V78CX7SSC72,4295872611,IND,IND,,National Aluminium Co Ltd -> Panchpatmalli Mine [unknown %],,National Aluminium Co Ltd,E100000000522,,,42233189,Panchpatmalli Mine,mineral-extraction,bauxite-mining
natural person(s),E100000123261,person,not applicable,not applicable,,,,natural person(s)  -> National Aluminium Co Ltd [17.54%] -> Panchpatmalli Mine [unknown %],,National Aluminium Co Ltd,E100000000522,,,42233189,Panchpatmalli Mine,mineral-extraction,bauxite-mining
small shareholder(s),E100001015587,unknown entity,not applicable,not applicable,,,,small shareholder(s)  -> National Aluminium Co Ltd [31.18%] -> Panchpatmalli Mine [unknown %],,National Aluminium Co Ltd,E100000000522,,,42233189,Panchpatmalli Mine,mineral-extraction,bauxite-mining
Shri Nataraj Ceramic and Chemical Industries Ltd,E100002011145,legal entity,,,,,,Shri Nataraj Ceramic and Chemical Industries Ltd -> Pilidhar Mine [unknown %],,Shri Nataraj Ceramic and Chemical Industries Ltd,E100002011145,,,42233191,Pilidhar Mine,mineral-extraction,bauxite-mining
natural person(s),E100000123261,person,not applicable,not applicable,,,,natural person(s)  -> Putka Pahad Mine [unknown %],,natural person(s),E100000123261,,,42233192,Putka Pahad Mine,mineral-extraction,bauxite-mining
Saurashtra Calcine Bauxite and Allied Industries Ltd,E100002011119,legal entity,,,,,,Saurashtra Calcine Bauxite and Allied Industries Ltd -> Ran Mine [unknown %],,Saurashtra Calcine Bauxite and Allied Industries Ltd,E100002011119,,,42233193,Ran Mine,mineral-extraction,bauxite-mining
Orient Ceratech Ltd,E100002011101,,,,,,,Orient Ceratech Ltd -> Rata Talab Mine [unknown %],,Orient Ceratech Ltd,E100002011101,,,42233194,Rata Talab Mine,mineral-extraction,bauxite-mining
State of Gujarat,E100000131638,state,,5000004492,,IND,,State of Gujarat  -> Gujarat Mineral Development Co Ltd [74.0%] -> Ratadia-Nagrecha Mine [unknown %],,Gujarat Mineral Development Co Ltd,E100001000669,,,42233195,Ratadia-Nagrecha Mine,mineral-extraction,bauxite-mining
small shareholder(s),E100001015587,unknown entity,not applicable,not applicable,,,,small shareholder(s)  -> Gujarat Mineral Development Co Ltd [7.78%] -> Ratadia-Nagrecha Mine [unknown %],,Gujarat Mineral Development Co Ltd,E100001000669,,,42233195,Ratadia-Nagrecha Mine,mineral-extraction,bauxite-mining
Gujarat Mineral Development Co Ltd,E100001000669,legal entity,335800B8OP5L7DH9VD35,4295872462,IND,IND,,Gujarat Mineral Development Co Ltd -> Ratadia-Nagrecha Mine [unknown %],,Gujarat Mineral Development Co Ltd,E100001000669,,,42233195,Ratadia-Nagrecha Mine,mineral-extraction,bauxite-mining
natural person(s),E100000123261,person,not applicable,not applicable,,,,natural person(s)  -> Gujarat Mineral Development Co Ltd [18.22%] -> Ratadia-Nagrecha Mine [unknown %],,Gujarat Mineral Development Co Ltd,E100001000669,,,42233195,Ratadia-Nagrecha Mine,mineral-extraction,bauxite-mining
Shivram Minerals,E100002011147,,,,,,,Shivram Minerals  -> Ringewadi Mine [unknown %],,Shivram Minerals,E100002011147,,,42233196,Ringewadi Mine,mineral-extraction,bauxite-mining
natural person(s),E100000123261,person,not applicable,not applicable,,,,natural person(s)  -> Roha-Kotda Mine [unknown %],,natural person(s),E100000123261,,,42233197,Roha-Kotda Mine,mineral-extraction,bauxite-mining
Sangeetha Minerals Pvt Ltd,E100002011148,,,,,,,Sangeetha Minerals Pvt Ltd -> Rosara Mine [unknown %],,Sangeetha Minerals Pvt Ltd,E100002011148,,,42233198,Rosara Mine,mineral-extraction,bauxite-mining
Ashapura Minechem Ltd,E100002011149,,,,,,,Ashapura Minechem Ltd -> Rowale Mine [unknown %],,Ashapura Minechem Ltd,E100002011149,,,42233199,Rowale Mine,mineral-extraction,bauxite-mining
Madhya Pradesh Minerals Supply Co,E100002011115,,,,,,,Madhya Pradesh Minerals Supply Co -> Salaiya Mine [unknown %],,Madhya Pradesh Minerals Supply Co,E100002011115,,,42233200,Salaiya Mine,mineral-extraction,bauxite-mining
,,,,,,,,,,,,Bharat Aluminum Co Ltd,E100001010032,42233202,Sapnadar Mine,mineral-extraction,bauxite-mining
Government of India,E100001000397,state,,5000055448,,IND,,Government of India  -> Life Insurance Corporation of India Ltd [96.5%] -> Hindalco Industries Ltd [9.65%] -> Samri Mine [unknown %],,Hindalco Industries Ltd,E100000120560,,,42233202,Sapnadar Mine,mineral-extraction,bauxite-mining
IGH Holdings Pvt Ltd,E100001010419,legal entity,335800E52FQAZNBKW310,5000932187,IND,IND,,IGH Holdings Pvt Ltd -> Hindalco Industries Ltd [15.58%] -> Samri Mine [unknown %],,Hindalco Industries Ltd,E100000120560,,,42233202,Sapnadar Mine,mineral-extraction,bauxite-mining
Hindalco Industries Ltd,E100000120560,legal entity,335800KXLE5NO5B4GF90,4295873625,IND,IND,,Hindalco Industries Ltd -> Samri Mine [unknown %],,Hindalco Industries Ltd,E100000120560,,,42233202,Sapnadar Mine,mineral-extraction,bauxite-mining
Vedanta Resources PLC,E100002011099,,,,,,,Vedanta Resources PLC -> Sapnadar Mine [unknown %],,Vedanta Resources PLC,E100002011099,,,42233202,Sapnadar Mine,mineral-extraction,bauxite-mining
Life Insurance Corporation of India Ltd,E100001000520,legal entity,21380068NOA8WMH89Z35,4298477512,IND,IND,,Life Insurance Corporation of India Ltd -> Hindalco Industries Ltd [9.65%] -> Samri Mine [unknown %],,Hindalco Industries Ltd,E100000120560,,,42233202,Sapnadar Mine,mineral-extraction,bauxite-mining
Birla Group Holdings Pvt Ltd,E100001010420,legal entity,335800ILCQTLE8K8I628,5000003697,IND,IND,,Birla Group Holdings Pvt Ltd -> Hindalco Industries Ltd [10.16%] -> Samri Mine [unknown %],,Hindalco Industries Ltd,E100000120560,,,42233202,Sapnadar Mine,mineral-extraction,bauxite-mining
natural person(s),E100000123261,person,not applicable,not applicable,,,,natural person(s)  -> Hindalco Industries Ltd [5.16%] -> Samri Mine [unknown %],,Hindalco Industries Ltd,E100000120560,,,42233202,Sapnadar Mine,mineral-extraction,bauxite-mining
Essel Mining & Industries Ltd,E100000153045,legal entity,3358006SBGEK8EC3HC67,4296015221,IND,IND,,Essel Mining & Industries Ltd -> IGH Holdings Pvt Ltd [100.0%] -> Hindalco Industries Ltd [15.58%] -> Samri Mine [unknown %],,Hindalco Industries Ltd,E100000120560,,,42233202,Sapnadar Mine,mineral-extraction,bauxite-mining
small shareholder(s),E100001015587,unknown entity,not applicable,not applicable,,,,small shareholder(s)  -> Hindalco Industries Ltd [59.45%] -> Samri Mine [unknown %],,Hindalco Industries Ltd,E100000120560,,,42233202,Sapnadar Mine,mineral-extraction,bauxite-mining
Aditya Birla Management Corporation Pvt Ltd,E100000120031,legal entity,335800GITXOP4O6TQM65,5000053377,IND,IND,,Aditya Birla Management Corporation Pvt Ltd -> Essel Mining & Industries Ltd [unknown %] -> IGH Holdings Pvt Ltd [100.0%] -> Hindalco Industries Ltd [15.58%] -> Samri Mine [unknown %],,Hindalco Industries Ltd,E100000120560,,,42233202,Sapnadar Mine,mineral-extraction,bauxite-mining
Vedanta Resources PLC,E100002011099,,,,,,,Vedanta Resources PLC -> Selurnadu Mine [unknown %],,Vedanta Resources PLC,E100002011099,,,42233203,Selurnadu Mine,mineral-extraction,bauxite-mining
Mineral Exploration Corp Ltd,E100002011150,,,,,,,Mineral Exploration Corp Ltd -> Serangdag Mine [unknown %],,Mineral Exploration Corp Ltd,E100002011150,,,42233204,Serangdag Mine,mineral-extraction,bauxite-mining
Bhumipurusha Minerals Pvt Ltd,E100002011151,,,,,,,Bhumipurusha Minerals Pvt Ltd -> Shakti Mine [unknown %],,Bhumipurusha Minerals Pvt Ltd,E100002011151,,,42233205,Shakti Mine,mineral-extraction,bauxite-mining
Government of India,E100001000397,state,,5000055448,,IND,,Government of India  -> Life Insurance Corporation of India Ltd [96.5%] -> Hindalco Industries Ltd [9.65%] -> Sherengdag Mine [unknown %],,Hindalco Industries Ltd,E100000120560,,,42233206,Sherengdag Mine,mineral-extraction,bauxite-mining
IGH Holdings Pvt Ltd,E100001010419,legal entity,335800E52FQAZNBKW310,5000932187,IND,IND,,IGH Holdings Pvt Ltd -> Hindalco Industries Ltd [15.58%] -> Sherengdag Mine [unknown %],,Hindalco Industries Ltd,E100000120560,,,42233206,Sherengdag Mine,mineral-extraction,bauxite-mining
Hindalco Industries Ltd,E100000120560,legal entity,335800KXLE5NO5B4GF90,4295873625,IND,IND,,Hindalco Industries Ltd -> Sherengdag Mine [unknown %],,Hindalco Industries Ltd,E100000120560,,,42233206,Sherengdag Mine,mineral-extraction,bauxite-mining
Life Insurance Corporation of India Ltd,E100001000520,legal entity,21380068NOA8WMH89Z35,4298477512,IND,IND,,Life Insurance Corporation of India Ltd -> Hindalco Industries Ltd [9.65%] -> Sherengdag Mine [unknown %],,Hindalco Industries Ltd,E100000120560,,,42233206,Sherengdag Mine,mineral-extraction,bauxite-mining
Birla Group Holdings Pvt Ltd,E100001010420,legal entity,335800ILCQTLE8K8I628,5000003697,IND,IND,,Birla Group Holdings Pvt Ltd -> Hindalco Industries Ltd [10.16%] -> Sherengdag Mine [unknown %],,Hindalco Industries Ltd,E100000120560,,,42233206,Sherengdag Mine,mineral-extraction,bauxite-mining
natural person(s),E100000123261,person,not applicable,not applicable,,,,natural person(s)  -> Hindalco Industries Ltd [5.16%] -> Sherengdag Mine [unknown %],,Hindalco Industries Ltd,E100000120560,,,42233206,Sherengdag Mine,mineral-extraction,bauxite-mining
small shareholder(s),E100001015587,unknown entity,not applicable,not applicable,,,,small shareholder(s)  -> Hindalco Industries Ltd [59.45%] -> Sherengdag Mine [unknown %],,Hindalco Industries Ltd,E100000120560,,,42233206,Sherengdag Mine,mineral-extraction,bauxite-mining
Aditya Birla Management Corporation Pvt Ltd,E100000120031,legal entity,335800GITXOP4O6TQM65,5000053377,IND,IND,,Aditya Birla Management Corporation Pvt Ltd -> Essel Mining & Industries Ltd [unknown %] -> IGH Holdings Pvt Ltd [100.0%] -> Hindalco Industries Ltd [15.58%] -> Sherengdag Mine [unknown %],,Hindalco Industries Ltd,E100000120560,,,42233206,Sherengdag Mine,mineral-extraction,bauxite-mining
Essel Mining & Industries Ltd,E100000153045,legal entity,3358006SBGEK8EC3HC67,4296015221,IND,IND,,Essel Mining & Industries Ltd -> IGH Holdings Pvt Ltd [100.0%] -> Hindalco Industries Ltd [15.58%] -> Sherengdag Mine [unknown %],,Hindalco Industries Ltd,E100000120560,,,42233206,Sherengdag Mine,mineral-extraction,bauxite-mining
Rakesh Agencies Pvt Ltd,E100002011123,,,,,,,Rakesh Agencies Pvt Ltd -> Sidha Kothar Mine [unknown %],,Rakesh Agencies Pvt Ltd,E100002011123,,,42233207,Sidha Kothar Mine,mineral-extraction,bauxite-mining
Riddhi Mines and Minerals Pvt Ltd,E100002011152,,,,,,,Riddhi Mines and Minerals Pvt Ltd -> Sorna Mine [unknown %],,Riddhi Mines and Minerals Pvt Ltd,E100002011152,,,42233208,Sorna Mine,mineral-extraction,bauxite-mining
Thanki Export Pvt Ltd,E100002011153,,,,,,,Thanki Export Pvt Ltd -> Sultani Mine [unknown %],,Thanki Export Pvt Ltd,E100002011153,,,42233209,Sultani Mine,mineral-extraction,bauxite-mining
Radhey Krishna Mines and Minerals Ltd,E100002011154,legal entity,,,,,,Radhey Krishna Mines and Minerals Ltd -> Taiyabpura Mine [unknown %],,Radhey Krishna Mines and Minerals Ltd,E100002011154,,,42233210,Taiyabpura Mine,mineral-extraction,bauxite-mining
,,,,,,,,,,,,Hindalco Industries Ltd,E100000120560,42233211,Tatijharia Mine,mineral-extraction,bauxite-mining
natural person(s),E100000123261,person,not applicable,not applicable,,,,natural person(s)  -> Tatijharia Mine [unknown %],,natural person(s),E100000123261,,,42233211,Tatijharia Mine,mineral-extraction,bauxite-mining
natural person(s),E100000123261,person,not applicable,not applicable,,,,natural person(s)  -> Tenpur Mine [unknown %],,natural person(s),E100000123261,,,42233212,Tenpur Mine,mineral-extraction,bauxite-mining
natural person(s),E100000123261,person,not applicable,not applicable,,,,natural person(s)  -> Tharka Mine [unknown %],,natural person(s),E100000123261,,,42233213,Tharka Mine,mineral-extraction,bauxite-mining
Ram Das Verma & Co,E100002011158,legal entity,,,,,,Ram Das Verma & Co -> Tikar-A Mine [unknown %],,Ram Das Verma & Co,E100002011158,,,42233214,Tikar-A Mine,mineral-extraction,bauxite-mining
Ram Das Verma & Co,E100002011158,legal entity,,,,,,Ram Das Verma & Co -> Tikar-B Mine [unknown %],,Ram Das Verma & Co,E100002011158,,,42233215,Tikar-B Mine,mineral-extraction,bauxite-mining
natural person(s),E100000123261,person,not applicable,not applicable,,,,natural person(s)  -> Tikaria Mine [unknown %],,natural person(s),E100000123261,,,42233216,Tikaria Mine,mineral-extraction,bauxite-mining
natural person(s),E100000123261,person,not applicable,not applicable,,,,natural person(s)  -> Tikariya Mine [unknown %],,natural person(s),E100000123261,,,42233217,Tikariya Mine,mineral-extraction,bauxite-mining
Madhya Pradesh Minerals Supply Co,E100002011115,,,,,,,Madhya Pradesh Minerals Supply Co -> Udali Mine [unknown %],,Madhya Pradesh Minerals Supply Co,E100002011115,,,42233218,Udali Mine,mineral-extraction,bauxite-mining
Mohite Industries Ltd,E100002011161,,,,,,,Mohite Industries Ltd -> Udgiri Mine [unknown %],,Mohite Industries Ltd,E100002011161,,,42233219,Udgiri Mine,mineral-extraction,bauxite-mining
Ashapura Minechem Ltd,E100002011149,,,,,,,Ashapura Minechem Ltd -> Umbarshet Mine [unknown %],,Ashapura Minechem Ltd,E100002011149,,,42233220,Umbarshet Mine,mineral-extraction,bauxite-mining
Chhattisgarh Mineral Development Corp Ltd,E100002002787,legal entity,3358001HWYA9L13YQC88,5037037630,IND,IND,,Chhattisgarh Mineral Development Corp Ltd -> Uranga-Barima Mine [unknown %],,Chhattisgarh Mineral Development Corp Ltd,E100002002787,,,42233221,Uranga-Barima Mine,mineral-extraction,bauxite-mining
State of Chhattisgarh,E100001010798,state,,5000008134,,IND,,State of Chhattisgarh  -> Chhattisgarh Mineral Development Corp Ltd [unknown %] -> Uranga-Barima Mine [unknown %],,Chhattisgarh Mineral Development Corp Ltd,E100002002787,,,42233221,Uranga-Barima Mine,mineral-extraction,bauxite-mining
natural person(s),E100000123261,person,not applicable,not applicable,,,,natural person(s)  -> Uttambar Mine [unknown %],,natural person(s),E100000123261,,,42233222,Uttambar Mine,mineral-extraction,bauxite-mining
Orient Ceratech Ltd,E100002011101,,,,,,,Orient Ceratech Ltd -> Varada-I Mine [unknown %],,Orient Ceratech Ltd,E100002011101,,,42233223,Varada-I Mine,mineral-extraction,bauxite-mining
Orient Ceratech Ltd,E100002011101,,,,,,,Orient Ceratech Ltd -> Varada-II Mine [unknown %],,Orient Ceratech Ltd,E100002011101,,,42233224,Varada-II Mine,mineral-extraction,bauxite-mining
Ashapura Minechem Ltd,E100002011149,,,,,,,Ashapura Minechem Ltd -> Velas-Sakhari Mine [unknown %],,Ashapura Minechem Ltd,E100002011149,,,42233225,Velas-Sakhari Mine,mineral-extraction,bauxite-mining
Dalmia Bharat Refractories Ltd,E100002011163,,,,,,,Dalmia Bharat Refractories Ltd -> Virpur Mine [unknown %],,Dalmia Bharat Refractories Ltd,E100002011163,,,42233226,Virpur Mine,mineral-extraction,bauxite-mining
natural person(s),E100000123261,person,not applicable,not applicable,,,,natural person(s)  -> Visavada Mine [unknown %],,natural person(s),E100000123261,,,42233227,Visavada Mine,mineral-extraction,bauxite-mining
Gujarat Mineral Development Co Ltd,E100001000669,legal entity,335800B8OP5L7DH9VD35,4295872462,IND,IND,,Gujarat Mineral Development Co Ltd -> Wandh-I Mine [unknown %],,Gujarat Mineral Development Co Ltd,E100001000669,,,42233228,Wandh-I Mine,mineral-extraction,bauxite-mining
natural person(s),E100000123261,person,not applicable,not applicable,,,,natural person(s)  -> Gujarat Mineral Development Co Ltd [18.22%] -> Wandh-I Mine [unknown %],,Gujarat Mineral Development Co Ltd,E100001000669,,,42233228,Wandh-I Mine,mineral-extraction,bauxite-mining
State of Gujarat,E100000131638,state,,5000004492,,IND,,State of Gujarat  -> Gujarat Mineral Development Co Ltd [74.0%] -> Wandh-I Mine [unknown %],,Gujarat Mineral Development Co Ltd,E100001000669,,,42233228,Wandh-I Mine,mineral-extraction,bauxite-mining
small shareholder(s),E100001015587,unknown entity,not applicable,not applicable,,,,small shareholder(s)  -> Gujarat Mineral Development Co Ltd [7.78%] -> Wandh-I Mine [unknown %],,Gujarat Mineral Development Co Ltd,E100001000669,,,42233228,Wandh-I Mine,mineral-extraction,bauxite-mining
State of Gujarat,E100000131638,state,,5000004492,,IND,,State of Gujarat  -> Gujarat Mineral Development Co Ltd [74.0%] -> Wandh-II Mine [unknown %],,Gujarat Mineral Development Co Ltd,E100001000669,,,42233229,Wandh-II Mine,mineral-extraction,bauxite-mining
Gujarat Mineral Development Co Ltd,E100001000669,legal entity,335800B8OP5L7DH9VD35,4295872462,IND,IND,,Gujarat Mineral Development Co Ltd -> Wandh-II Mine [unknown %],,Gujarat Mineral Development Co Ltd,E100001000669,,,42233229,Wandh-II Mine,mineral-extraction,bauxite-mining
natural person(s),E100000123261,person,not applicable,not applicable,,,,natural person(s)  -> Gujarat Mineral Development Co Ltd [18.22%] -> Wandh-II Mine [unknown %],,Gujarat Mineral Development Co Ltd,E100001000669,,,42233229,Wandh-II Mine,mineral-extraction,bauxite-mining
small shareholder(s),E100001015587,unknown entity,not applicable,not applicable,,,,small shareholder(s)  -> Gujarat Mineral Development Co Ltd [7.78%] -> Wandh-II Mine [unknown %],,Gujarat Mineral Development Co Ltd,E100001000669,,,42233229,Wandh-II Mine,mineral-extraction,bauxite-mining
Shri Warana Minerals Pvt Ltd,E100002011164,,,,,,,Shri Warana Minerals Pvt Ltd -> Yelwan Jugai Mine [unknown %],,Shri Warana Minerals Pvt Ltd,E100002011164,,,42233230,Yelwan Jugai Mine,mineral-extraction,bauxite-mining
Vedanta Resources PLC,E100002011099,,,,,,,Vedanta Resources PLC -> Yercaud Mine [unknown %],,Vedanta Resources PLC,E100002011099,,,42233231,Yercaud Mine,mineral-extraction,bauxite-mining
